STARLINK-36697          
1 67698U 26025F   26056.77258470  .00099022  00000+0  51152-3 0  9998
2 67698  97.2835 167.7561 0001358  85.5420 274.6003 15.80830316  4063
STARLINK-36716          
1 67699U 26025G   26056.83336806  .00009476  00000+0  50128-4 0  9993
2 67699  97.2841 167.8227 0001635  86.6415 269.0033 15.80827776  4107
STARLINK-36712          
1 67700U 26025H   26056.83336806 -.01889222  00000+0 -13240-1 0  9995
2 67700  97.2847 167.8254 0001251  73.6922 286.1773 15.77286324  3899
STARLINK-36713          
1 67701U 26025J   26056.83336806 -.00016317  00000+0 -10868-3 0  9997
2 67701  97.2845 167.8199 0000958  72.4330 279.2737 15.75201781  4109
STARLINK-36695          
1 67702U 26025K   26056.83336806 -.00118804  00000+0 -80408-3 0  9999
2 67702  97.2842 167.8139 0001165 110.8440 228.8423 15.75266786  3940
STARLINK-36630          
1 67703U 26025L   26056.83336806 -.00035958  00000+0 -18753-3 0  9992
2 67703  97.2844 167.8359 0001698 106.4464 284.4934 15.80840814  3946
STARLINK-36338          
1 67704U 26025M   26056.83336806 -.00074092  00000+0 -38827-3 0  9999
2 67704  97.2846 167.8406 0001575  77.2989 324.2569 15.80876024  3997
STARLINK-36316          
1 67705U 26025N   26056.83336806 -.00113118  00000+0 -76546-3 0  9993
2 67705  97.2833 167.8427 0001653  60.9226 344.7516 15.75253080  3991
STARLINK-36707          
1 67706U 26025P   26056.83336806  .00010438  00000+0  55143-4 0  9994
2 67706  97.2846 167.8543 0001392 127.3478 307.5460 15.80826243  3787
STARLINK-36645          
1 67707U 26025Q   26056.83336806 -.00161481  00000+0 -10978-2 0  9997
2 67707  97.2838 167.8334 0001404  88.7770 294.9059 15.75284829  3556
STARLINK-36287          
1 67708U 26025R   26056.83336806 -.00062811  00000+0 -32881-3 0  9993
2 67708  97.2849 167.8567 0001307 111.7529 333.1658 15.80863983  4101
STARLINK-36698          
1 67709U 26025S   26056.83336806  .00008954  00000+0  47382-4 0  9993
2 67709  97.2850 167.8736 0001644 100.8507  23.4655 15.80842338  3949
