CCSDS_OMM_VERS = 2.0
CREATION_DATE  = 
ORIGINATOR     = 

OBJECT_NAME    = STARLINK-36697
OBJECT_ID      = 2026-025F
CENTER_NAME    = EARTH
REF_FRAME      = TEME
TIME_SYSTEM    = UTC
MEAN_ELEMENT_THEORY = SGP/SGP4

EPOCH          = 2026-02-25T18:32:31.318080
MEAN_MOTION    = 15.80830316
ECCENTRICITY   = .0001358
INCLINATION    = 97.2835
RA_OF_ASC_NODE = 167.7561
ARG_OF_PERICENTER = 85.5420
MEAN_ANOMALY   = 274.6003

EPHEMERIS_TYPE = 0
CLASSIFICATION_TYPE = U
NORAD_CAT_ID   = 67698
ELEMENT_SET_NO = 999
REV_AT_EPOCH   = 406
BSTAR          = .51152E-3
MEAN_MOTION_DOT = .99022E-3
MEAN_MOTION_DDOT = 0

CCSDS_OMM_VERS = 2.0
CREATION_DATE  = 
ORIGINATOR     = 

OBJECT_NAME    = STARLINK-36716
OBJECT_ID      = 2026-025G
CENTER_NAME    = EARTH
REF_FRAME      = TEME
TIME_SYSTEM    = UTC
MEAN_ELEMENT_THEORY = SGP/SGP4

EPOCH          = 2026-02-25T20:00:03.000384
MEAN_MOTION    = 15.80827776
ECCENTRICITY   = .0001635
INCLINATION    = 97.2841
RA_OF_ASC_NODE = 167.8227
ARG_OF_PERICENTER = 86.6415
MEAN_ANOMALY   = 269.0033

EPHEMERIS_TYPE = 0
CLASSIFICATION_TYPE = U
NORAD_CAT_ID   = 67699
ELEMENT_SET_NO = 999
REV_AT_EPOCH   = 410
BSTAR          = .50128E-4
MEAN_MOTION_DOT = .9476E-4
MEAN_MOTION_DDOT = 0

CCSDS_OMM_VERS = 2.0
CREATION_DATE  = 
ORIGINATOR     = 

OBJECT_NAME    = STARLINK-36712
OBJECT_ID      = 2026-025H
CENTER_NAME    = EARTH
REF_FRAME      = TEME
TIME_SYSTEM    = UTC
MEAN_ELEMENT_THEORY = SGP/SGP4

EPOCH          = 2026-02-25T20:00:03.000384
MEAN_MOTION    = 15.77286324
ECCENTRICITY   = .0001251
INCLINATION    = 97.2847
RA_OF_ASC_NODE = 167.8254
ARG_OF_PERICENTER = 73.6922
MEAN_ANOMALY   = 286.1773

EPHEMERIS_TYPE = 0
CLASSIFICATION_TYPE = U
NORAD_CAT_ID   = 67700
ELEMENT_SET_NO = 999
REV_AT_EPOCH   = 389
BSTAR          = -.1324E-1
MEAN_MOTION_DOT = -.1889222E-1
MEAN_MOTION_DDOT = 0

CCSDS_OMM_VERS = 2.0
CREATION_DATE  = 
ORIGINATOR     = 

OBJECT_NAME    = STARLINK-36713
OBJECT_ID      = 2026-025J
CENTER_NAME    = EARTH
REF_FRAME      = TEME
TIME_SYSTEM    = UTC
MEAN_ELEMENT_THEORY = SGP/SGP4

EPOCH          = 2026-02-25T20:00:03.000384
MEAN_MOTION    = 15.75201781
ECCENTRICITY   = .0000958
INCLINATION    = 97.2845
RA_OF_ASC_NODE = 167.8199
ARG_OF_PERICENTER = 72.4330
MEAN_ANOMALY   = 279.2737

EPHEMERIS_TYPE = 0
CLASSIFICATION_TYPE = U
NORAD_CAT_ID   = 67701
ELEMENT_SET_NO = 999
REV_AT_EPOCH   = 410
BSTAR          = -.10868E-3
MEAN_MOTION_DOT = -.16317E-3
MEAN_MOTION_DDOT = 0

CCSDS_OMM_VERS = 2.0
CREATION_DATE  = 
ORIGINATOR     = 

OBJECT_NAME    = STARLINK-36695
OBJECT_ID      = 2026-025K
CENTER_NAME    = EARTH
REF_FRAME      = TEME
TIME_SYSTEM    = UTC
MEAN_ELEMENT_THEORY = SGP/SGP4

EPOCH          = 2026-02-25T20:00:03.000384
MEAN_MOTION    = 15.75266786
ECCENTRICITY   = .0001165
INCLINATION    = 97.2842
RA_OF_ASC_NODE = 167.8139
ARG_OF_PERICENTER = 110.8440
MEAN_ANOMALY   = 228.8423

EPHEMERIS_TYPE = 0
CLASSIFICATION_TYPE = U
NORAD_CAT_ID   = 67702
ELEMENT_SET_NO = 999
REV_AT_EPOCH   = 394
BSTAR          = -.80408E-3
MEAN_MOTION_DOT = -.118804E-2
MEAN_MOTION_DDOT = 0

CCSDS_OMM_VERS = 2.0
CREATION_DATE  = 
ORIGINATOR     = 

OBJECT_NAME    = STARLINK-36630
OBJECT_ID      = 2026-025L
CENTER_NAME    = EARTH
REF_FRAME      = TEME
TIME_SYSTEM    = UTC
MEAN_ELEMENT_THEORY = SGP/SGP4

EPOCH          = 2026-02-25T20:00:03.000384
MEAN_MOTION    = 15.80840814
ECCENTRICITY   = .0001698
INCLINATION    = 97.2844
RA_OF_ASC_NODE = 167.8359
ARG_OF_PERICENTER = 106.4464
MEAN_ANOMALY   = 284.4934

EPHEMERIS_TYPE = 0
CLASSIFICATION_TYPE = U
NORAD_CAT_ID   = 67703
ELEMENT_SET_NO = 999
REV_AT_EPOCH   = 394
BSTAR          = -.18753E-3
MEAN_MOTION_DOT = -.35958E-3
MEAN_MOTION_DDOT = 0

CCSDS_OMM_VERS = 2.0
CREATION_DATE  = 
ORIGINATOR     = 

OBJECT_NAME    = STARLINK-36338
OBJECT_ID      = 2026-025M
CENTER_NAME    = EARTH
REF_FRAME      = TEME
TIME_SYSTEM    = UTC
MEAN_ELEMENT_THEORY = SGP/SGP4

EPOCH          = 2026-02-25T20:00:03.000384
MEAN_MOTION    = 15.80876024
ECCENTRICITY   = .0001575
INCLINATION    = 97.2846
RA_OF_ASC_NODE = 167.8406
ARG_OF_PERICENTER = 77.2989
MEAN_ANOMALY   = 324.2569

EPHEMERIS_TYPE = 0
CLASSIFICATION_TYPE = U
NORAD_CAT_ID   = 67704
ELEMENT_SET_NO = 999
REV_AT_EPOCH   = 399
BSTAR          = -.38827E-3
MEAN_MOTION_DOT = -.74092E-3
MEAN_MOTION_DDOT = 0

CCSDS_OMM_VERS = 2.0
CREATION_DATE  = 
ORIGINATOR     = 

OBJECT_NAME    = STARLINK-36316
OBJECT_ID      = 2026-025N
CENTER_NAME    = EARTH
REF_FRAME      = TEME
TIME_SYSTEM    = UTC
MEAN_ELEMENT_THEORY = SGP/SGP4

EPOCH          = 2026-02-25T20:00:03.000384
MEAN_MOTION    = 15.75253080
ECCENTRICITY   = .0001653
INCLINATION    = 97.2833
RA_OF_ASC_NODE = 167.8427
ARG_OF_PERICENTER = 60.9226
MEAN_ANOMALY   = 344.7516

EPHEMERIS_TYPE = 0
CLASSIFICATION_TYPE = U
NORAD_CAT_ID   = 67705
ELEMENT_SET_NO = 999
REV_AT_EPOCH   = 399
BSTAR          = -.76546E-3
MEAN_MOTION_DOT = -.113118E-2
MEAN_MOTION_DDOT = 0

CCSDS_OMM_VERS = 2.0
CREATION_DATE  = 
ORIGINATOR     = 

OBJECT_NAME    = STARLINK-36707
OBJECT_ID      = 2026-025P
CENTER_NAME    = EARTH
REF_FRAME      = TEME
TIME_SYSTEM    = UTC
MEAN_ELEMENT_THEORY = SGP/SGP4

EPOCH          = 2026-02-25T20:00:03.000384
MEAN_MOTION    = 15.80826243
ECCENTRICITY   = .0001392
INCLINATION    = 97.2846
RA_OF_ASC_NODE = 167.8543
ARG_OF_PERICENTER = 127.3478
MEAN_ANOMALY   = 307.5460

EPHEMERIS_TYPE = 0
CLASSIFICATION_TYPE = U
NORAD_CAT_ID   = 67706
ELEMENT_SET_NO = 999
REV_AT_EPOCH   = 378
BSTAR          = .55143E-4
MEAN_MOTION_DOT = .10438E-3
MEAN_MOTION_DDOT = 0

CCSDS_OMM_VERS = 2.0
CREATION_DATE  = 
ORIGINATOR     = 

OBJECT_NAME    = STARLINK-36645
OBJECT_ID      = 2026-025Q
CENTER_NAME    = EARTH
REF_FRAME      = TEME
TIME_SYSTEM    = UTC
MEAN_ELEMENT_THEORY = SGP/SGP4

EPOCH          = 2026-02-25T20:00:03.000384
MEAN_MOTION    = 15.75284829
ECCENTRICITY   = .0001404
INCLINATION    = 97.2838
RA_OF_ASC_NODE = 167.8334
ARG_OF_PERICENTER = 88.7770
MEAN_ANOMALY   = 294.9059

EPHEMERIS_TYPE = 0
CLASSIFICATION_TYPE = U
NORAD_CAT_ID   = 67707
ELEMENT_SET_NO = 999
REV_AT_EPOCH   = 355
BSTAR          = -.10978E-2
MEAN_MOTION_DOT = -.161481E-2
MEAN_MOTION_DDOT = 0

CCSDS_OMM_VERS = 2.0
CREATION_DATE  = 
ORIGINATOR     = 

OBJECT_NAME    = STARLINK-36287
OBJECT_ID      = 2026-025R
CENTER_NAME    = EARTH
REF_FRAME      = TEME
TIME_SYSTEM    = UTC
MEAN_ELEMENT_THEORY = SGP/SGP4

EPOCH          = 2026-02-25T20:00:03.000384
MEAN_MOTION    = 15.80863983
ECCENTRICITY   = .0001307
INCLINATION    = 97.2849
RA_OF_ASC_NODE = 167.8567
ARG_OF_PERICENTER = 111.7529
MEAN_ANOMALY   = 333.1658

EPHEMERIS_TYPE = 0
CLASSIFICATION_TYPE = U
NORAD_CAT_ID   = 67708
ELEMENT_SET_NO = 999
REV_AT_EPOCH   = 410
BSTAR          = -.32881E-3
MEAN_MOTION_DOT = -.62811E-3
MEAN_MOTION_DDOT = 0

CCSDS_OMM_VERS = 2.0
CREATION_DATE  = 
ORIGINATOR     = 

OBJECT_NAME    = STARLINK-36698
OBJECT_ID      = 2026-025S
CENTER_NAME    = EARTH
REF_FRAME      = TEME
TIME_SYSTEM    = UTC
MEAN_ELEMENT_THEORY = SGP/SGP4

EPOCH          = 2026-02-25T20:00:03.000384
MEAN_MOTION    = 15.80842338
ECCENTRICITY   = .0001644
INCLINATION    = 97.2850
RA_OF_ASC_NODE = 167.8736
ARG_OF_PERICENTER = 100.8507
MEAN_ANOMALY   = 23.4655

EPHEMERIS_TYPE = 0
CLASSIFICATION_TYPE = U
NORAD_CAT_ID   = 67709
ELEMENT_SET_NO = 999
REV_AT_EPOCH   = 394
BSTAR          = .47382E-4
MEAN_MOTION_DOT = .8954E-4
MEAN_MOTION_DDOT = 0

